{
  "norad_id": 58360,
  "name": "STARLINK-30897",
  "history": [
    {
      "epoch": "2026-03-28T17:13:14.183328",
      "apogee_km": 560.0640288734203,
      "perigee_km": 558.1014894035598,
      "latitude_deg": 33.552234147547274,
      "longitude_deg": 84.88242591987364,
      "semi_major_axis_km": 6937.219759138489,
      "eccentricity": 0.00014145,
      "inclination_deg": 43.0024,
      "raan_deg": 248.5712,
      "arg_perigee_deg": 262.2001,
      "mean_anomaly_deg": 97.868,
      "mean_motion_rev_day": 15.02534952
    },
    {
      "epoch": "2026-03-29T02:47:35.893824",
      "apogee_km": 559.9832208130665,
      "perigee_km": 558.1490243074613,
      "latitude_deg": 30.74090719890936,
      "longitude_deg": 123.17321536014788,
      "semi_major_axis_km": 6937.203122560264,
      "eccentricity": 0.0001322,
      "inclination_deg": 43.0021,
      "raan_deg": 246.4037,
      "arg_perigee_deg": 263.2223,
      "mean_anomaly_deg": 96.8469,
      "mean_motion_rev_day": 15.02540357
    }
  ]
}